[{"OBJECT_NAME":"HULIANWANG DIGUI-17","OBJECT_ID":"2025-030G","EPOCH":"2026-03-04T18:15:46.460160","MEAN_MOTION":13.29338198,"ECCENTRICITY":7.45e-5,"INCLINATION":50.0047,"RA_OF_ASC_NODE":250.1036,"ARG_OF_PERICENTER":155.5789,"MEAN_ANOMALY":204.5118,"EPHEMERIS_TYPE":0,"CLASSIFICATION_TYPE":"U","NORAD_CAT_ID":62977,"ELEMENT_SET_NO":999,"REV_AT_EPOCH":5197,"BSTAR":7.7077e-5,"MEAN_MOTION_DOT":-8.8e-7,"MEAN_MOTION_DDOT":0},{"OBJECT_NAME":"HULIANWANG DIGUI-18","OBJECT_ID":"2025-030H","EPOCH":"2026-03-04T19:51:58.462272","MEAN_MOTION":13.29338195,"ECCENTRICITY":7.82e-5,"INCLINATION":50.0051,"RA_OF_ASC_NODE":249.8006,"ARG_OF_PERICENTER":157.7906,"MEAN_ANOMALY":202.3,"EPHEMERIS_TYPE":0,"CLASSIFICATION_TYPE":"U","NORAD_CAT_ID":62978,"ELEMENT_SET_NO":999,"REV_AT_EPOCH":5198,"BSTAR":5.655e-5,"MEAN_MOTION_DOT":-9.8e-7,"MEAN_MOTION_DDOT":0},{"OBJECT_NAME":"HULIANWANG DIGUI-19","OBJECT_ID":"2025-030J","EPOCH":"2026-03-04T18:51:32.537664","MEAN_MOTION":13.29341395,"ECCENTRICITY":8.16e-5,"INCLINATION":50.0036,"RA_OF_ASC_NODE":250.1992,"ARG_OF_PERICENTER":152.5223,"MEAN_ANOMALY":207.5692,"EPHEMERIS_TYPE":0,"CLASSIFICATION_TYPE":"U","NORAD_CAT_ID":62979,"ELEMENT_SET_NO":999,"REV_AT_EPOCH":5197,"BSTAR":9.3584e-5,"MEAN_MOTION_DOT":-8.1e-7,"MEAN_MOTION_DDOT":0},{"OBJECT_NAME":"HULIANWANG DIGUI-20","OBJECT_ID":"2025-086A","EPOCH":"2026-03-04T18:26:16.094976","MEAN_MOTION":13.24420125,"ECCENTRICITY":0.0001724,"INCLINATION":86.5125,"RA_OF_ASC_NODE":348.2936,"ARG_OF_PERICENTER":91.8877,"MEAN_ANOMALY":268.2454,"EPHEMERIS_TYPE":0,"CLASSIFICATION_TYPE":"U","NORAD_CAT_ID":63687,"ELEMENT_SET_NO":999,"REV_AT_EPOCH":4105,"BSTAR":7.2949e-5,"MEAN_MOTION_DOT":4.6e-7,"MEAN_MOTION_DDOT":0},{"OBJECT_NAME":"HULIANWANG DIGUI-21","OBJECT_ID":"2025-086B","EPOCH":"2026-03-04T18:37:03.467712","MEAN_MOTION":13.244217,"ECCENTRICITY":0.0001612,"INCLINATION":86.5153,"RA_OF_ASC_NODE":348.3202,"ARG_OF_PERICENTER":94.6994,"MEAN_ANOMALY":265.4324,"EPHEMERIS_TYPE":0,"CLASSIFICATION_TYPE":"U","NORAD_CAT_ID":63688,"ELEMENT_SET_NO":999,"REV_AT_EPOCH":4104,"BSTAR":6.215e-5,"MEAN_MOTION_DOT":4.1e-7,"MEAN_MOTION_DDOT":0},{"OBJECT_NAME":"HULIANWANG DIGUI-22","OBJECT_ID":"2025-086C","EPOCH":"2026-03-04T18:47:56.996448","MEAN_MOTION":13.24421454,"ECCENTRICITY":0.0001793,"INCLINATION":86.5118,"RA_OF_ASC_NODE":348.2209,"ARG_OF_PERICENTER":92.0777,"MEAN_ANOMALY":268.0562,"EPHEMERIS_TYPE":0,"CLASSIFICATION_TYPE":"U","NORAD_CAT_ID":63689,"ELEMENT_SET_NO":999,"REV_AT_EPOCH":4104,"BSTAR":0.00010934,"MEAN_MOTION_DOT":6.2e-7,"MEAN_MOTION_DDOT":0},{"OBJECT_NAME":"HULIANWANG DIGUI-23","OBJECT_ID":"2025-086D","EPOCH":"2026-03-04T19:09:38.034432","MEAN_MOTION":13.24422161,"ECCENTRICITY":0.0001742,"INCLINATION":86.516,"RA_OF_ASC_NODE":348.3522,"ARG_OF_PERICENTER":88.3105,"MEAN_ANOMALY":271.8229,"EPHEMERIS_TYPE":0,"CLASSIFICATION_TYPE":"U","NORAD_CAT_ID":63690,"ELEMENT_SET_NO":999,"REV_AT_EPOCH":4104,"BSTAR":0.00013448,"MEAN_MOTION_DOT":7.2e-7,"MEAN_MOTION_DDOT":0},{"OBJECT_NAME":"HULIANWANG DIGUI-24","OBJECT_ID":"2025-086E","EPOCH":"2026-03-04T19:20:35.673216","MEAN_MOTION":13.24420257,"ECCENTRICITY":0.0001775,"INCLINATION":86.5167,"RA_OF_ASC_NODE":348.3762,"ARG_OF_PERICENTER":92.608,"MEAN_ANOMALY":267.5257,"EPHEMERIS_TYPE":0,"CLASSIFICATION_TYPE":"U","NORAD_CAT_ID":63691,"ELEMENT_SET_NO":999,"REV_AT_EPOCH":4104,"BSTAR":0.00014546,"MEAN_MOTION_DOT":7.7e-7,"MEAN_MOTION_DDOT":0},{"OBJECT_NAME":"HULIANWANG DIGUI-25","OBJECT_ID":"2025-086F","EPOCH":"2026-03-04T19:31:26.480352","MEAN_MOTION":13.24421752,"ECCENTRICITY":0.0001673,"INCLINATION":86.5106,"RA_OF_ASC_NODE":348.1958,"ARG_OF_PERICENTER":91.3274,"MEAN_ANOMALY":268.8051,"EPHEMERIS_TYPE":0,"CLASSIFICATION_TYPE":"U","NORAD_CAT_ID":63692,"ELEMENT_SET_NO":999,"REV_AT_EPOCH":4104,"BSTAR":0.00018192,"MEAN_MOTION_DOT":9.3e-7,"MEAN_MOTION_DDOT":0},{"OBJECT_NAME":"HULIANWANG DIGUI-26","OBJECT_ID":"2025-086G","EPOCH":"2026-03-04T18:58:38.931168","MEAN_MOTION":13.24421223,"ECCENTRICITY":0.0001739,"INCLINATION":86.5154,"RA_OF_ASC_NODE":348.3297,"ARG_OF_PERICENTER":96.6883,"MEAN_ANOMALY":263.4449,"EPHEMERIS_TYPE":0,"CLASSIFICATION_TYPE":"U","NORAD_CAT_ID":63693,"ELEMENT_SET_NO":999,"REV_AT_EPOCH":4104,"BSTAR":0.0001192,"MEAN_MOTION_DOT":6.6e-7,"MEAN_MOTION_DDOT":0},{"OBJECT_NAME":"HULIANWANG DIGUI-27","OBJECT_ID":"2025-086H","EPOCH":"2026-03-04T19:42:25.956864","MEAN_MOTION":13.24420147,"ECCENTRICITY":0.0001777,"INCLINATION":86.5115,"RA_OF_ASC_NODE":348.2278,"ARG_OF_PERICENTER":91.6932,"MEAN_ANOMALY":268.4406,"EPHEMERIS_TYPE":0,"CLASSIFICATION_TYPE":"U","NORAD_CAT_ID":63694,"ELEMENT_SET_NO":999,"REV_AT_EPOCH":4104,"BSTAR":0.00016125,"MEAN_MOTION_DOT":8.4e-7,"MEAN_MOTION_DDOT":0},{"OBJECT_NAME":"HULIANWANG DIGUI-28","OBJECT_ID":"2025-086J","EPOCH":"2026-03-04T18:15:17.457408","MEAN_MOTION":13.24421441,"ECCENTRICITY":0.0001769,"INCLINATION":86.508,"RA_OF_ASC_NODE":348.1527,"ARG_OF_PERICENTER":91.6473,"MEAN_ANOMALY":268.4863,"EPHEMERIS_TYPE":0,"CLASSIFICATION_TYPE":"U","NORAD_CAT_ID":63695,"ELEMENT_SET_NO":999,"REV_AT_EPOCH":4103,"BSTAR":9.3064e-5,"MEAN_MOTION_DOT":5.5e-7,"MEAN_MOTION_DDOT":0},{"OBJECT_NAME":"HULIANWANG DIGUI-29","OBJECT_ID":"2025-086K","EPOCH":"2026-03-04T19:53:18.795264","MEAN_MOTION":13.24420316,"ECCENTRICITY":0.000165,"INCLINATION":86.5108,"RA_OF_ASC_NODE":348.2098,"ARG_OF_PERICENTER":92.1461,"MEAN_ANOMALY":267.9862,"EPHEMERIS_TYPE":0,"CLASSIFICATION_TYPE":"U","NORAD_CAT_ID":63696,"ELEMENT_SET_NO":999,"REV_AT_EPOCH":4104,"BSTAR":0.00012366,"MEAN_MOTION_DOT":6.8e-7,"MEAN_MOTION_DDOT":0},{"OBJECT_NAME":"HULIANWANG DIGUI-30","OBJECT_ID":"2025-121A","EPOCH":"2026-03-04T18:15:08.307648","MEAN_MOTION":13.24423394,"ECCENTRICITY":0.0001996,"INCLINATION":86.4947,"RA_OF_ASC_NODE":48.7886,"ARG_OF_PERICENTER":78.8816,"MEAN_ANOMALY":281.2542,"EPHEMERIS_TYPE":0,"CLASSIFICATION_TYPE":"U","NORAD_CAT_ID":64283,"ELEMENT_SET_NO":999,"REV_AT_EPOCH":3633,"BSTAR":8.1427e-5,"MEAN_MOTION_DOT":5.0e-7,"MEAN_MOTION_DDOT":0},{"OBJECT_NAME":"HULIANWANG DIGUI-31","OBJECT_ID":"2025-121B","EPOCH":"2026-03-04T18:04:34.667328","MEAN_MOTION":13.2441957,"ECCENTRICITY":0.000202,"INCLINATION":86.4967,"RA_OF_ASC_NODE":48.8415,"ARG_OF_PERICENTER":79.1183,"MEAN_ANOMALY":281.0179,"EPHEMERIS_TYPE":0,"CLASSIFICATION_TYPE":"U","NORAD_CAT_ID":64284,"ELEMENT_SET_NO":999,"REV_AT_EPOCH":3633,"BSTAR":9.402e-5,"MEAN_MOTION_DOT":5.5e-7,"MEAN_MOTION_DDOT":0},{"OBJECT_NAME":"HULIANWANG DIGUI-32","OBJECT_ID":"2025-121C","EPOCH":"2026-03-04T17:53:11.388480","MEAN_MOTION":13.24425198,"ECCENTRICITY":0.000201,"INCLINATION":86.4908,"RA_OF_ASC_NODE":48.674,"ARG_OF_PERICENTER":81.1112,"MEAN_ANOMALY":279.0249,"EPHEMERIS_TYPE":0,"CLASSIFICATION_TYPE":"U","NORAD_CAT_ID":64285,"ELEMENT_SET_NO":999,"REV_AT_EPOCH":3633,"BSTAR":8.4082e-5,"MEAN_MOTION_DOT":5.1e-7,"MEAN_MOTION_DDOT":0}]
