HULIANWANG DIGUI-17     
1 62977U 25030G   26063.76095440 -.00000088  00000+0  77077-4 0  9991
2 62977  50.0047 250.1036 0000745 155.5789 204.5118 13.29338198 51972
HULIANWANG DIGUI-18     
1 62978U 25030H   26063.82775998 -.00000098  00000+0  56550-4 0  9996
2 62978  50.0051 249.8006 0000782 157.7906 202.3000 13.29338195 51980
HULIANWANG DIGUI-19     
1 62979U 25030J   26063.78579326 -.00000081  00000+0  93584-4 0  9999
2 62979  50.0036 250.1992 0000816 152.5223 207.5692 13.29341395 51975
HULIANWANG DIGUI-20     
1 63687U 25086A   26063.76824184  .00000046  00000+0  72949-4 0  9992
2 63687  86.5125 348.2936 0001724  91.8877 268.2454 13.24420125 41053
HULIANWANG DIGUI-21     
1 63688U 25086B   26063.77573458  .00000041  00000+0  62150-4 0  9997
2 63688  86.5153 348.3202 0001612  94.6994 265.4324 13.24421700 41043
HULIANWANG DIGUI-22     
1 63689U 25086C   26063.78329857  .00000062  00000+0  10934-3 0  9996
2 63689  86.5118 348.2209 0001793  92.0777 268.0562 13.24421454 41041
HULIANWANG DIGUI-23     
1 63690U 25086D   26063.79835688  .00000072  00000+0  13448-3 0  9997
2 63690  86.5160 348.3522 0001742  88.3105 271.8229 13.24422161 41044
HULIANWANG DIGUI-24     
1 63691U 25086E   26063.80596844  .00000077  00000+0  14546-3 0  9993
2 63691  86.5167 348.3762 0001775  92.6080 267.5257 13.24420257 41041
HULIANWANG DIGUI-25     
1 63692U 25086F   26063.81350093  .00000093  00000+0  18192-3 0  9998
2 63692  86.5106 348.1958 0001673  91.3274 268.8051 13.24421752 41045
HULIANWANG DIGUI-26     
1 63693U 25086G   26063.79072837  .00000066  00000+0  11920-3 0  9995
2 63693  86.5154 348.3297 0001739  96.6883 263.4449 13.24421223 41049
HULIANWANG DIGUI-27     
1 63694U 25086H   26063.82113376  .00000084  00000+0  16125-3 0  9996
2 63694  86.5115 348.2278 0001777  91.6932 268.4406 13.24420147 41049
HULIANWANG DIGUI-28     
1 63695U 25086J   26063.76061872  .00000055  00000+0  93064-4 0  9999
2 63695  86.5080 348.1527 0001769  91.6473 268.4863 13.24421441 41032
HULIANWANG DIGUI-29     
1 63696U 25086K   26063.82868976  .00000068  00000+0  12366-3 0  9996
2 63696  86.5108 348.2098 0001650  92.1461 267.9862 13.24420316 41044
HULIANWANG DIGUI-30     
1 64283U 25121A   26063.76051282  .00000050  00000+0  81427-4 0  9992
2 64283  86.4947  48.7886 0001996  78.8816 281.2542 13.24423394 36331
HULIANWANG DIGUI-31     
1 64284U 25121B   26063.75317902  .00000055  00000+0  94020-4 0  9994
2 64284  86.4967  48.8415 0002020  79.1183 281.0179 13.24419570 36338
HULIANWANG DIGUI-32     
1 64285U 25121C   26063.74527070  .00000051  00000+0  84082-4 0  9996
2 64285  86.4908  48.6740 0002010  81.1112 279.0249 13.24425198 36335
